CCSDS_OMM_VERS = 2.0
CREATION_DATE  = 
ORIGINATOR     = 

OBJECT_NAME    = STARLINK-36465
OBJECT_ID      = 2026-005V
CENTER_NAME    = EARTH
REF_FRAME      = TEME
TIME_SYSTEM    = UTC
MEAN_ELEMENT_THEORY = SGP/SGP4

EPOCH          = 2026-02-10T01:15:22.449888
MEAN_MOTION    = 15.40727322
ECCENTRICITY   = .0001447
INCLINATION    = 42.9999
RA_OF_ASC_NODE = 36.3219
ARG_OF_PERICENTER = 201.3951
MEAN_ANOMALY   = 158.6845

EPHEMERIS_TYPE = 0
CLASSIFICATION_TYPE = U
NORAD_CAT_ID   = 67423
ELEMENT_SET_NO = 999
REV_AT_EPOCH   = 444
BSTAR          = .18120868E-2
MEAN_MOTION_DOT = .76221E-3
MEAN_MOTION_DDOT = 0

CCSDS_OMM_VERS = 2.0
CREATION_DATE  = 
ORIGINATOR     = 

OBJECT_NAME    = STARLINK-36362
OBJECT_ID      = 2026-005W
CENTER_NAME    = EARTH
REF_FRAME      = TEME
TIME_SYSTEM    = UTC
MEAN_ELEMENT_THEORY = SGP/SGP4

EPOCH          = 2026-02-09T23:35:33.785088
MEAN_MOTION    = 15.40758589
ECCENTRICITY   = .00015586
INCLINATION    = 42.9994
RA_OF_ASC_NODE = 36.6595
ARG_OF_PERICENTER = 193.3203
MEAN_ANOMALY   = 166.7612

EPHEMERIS_TYPE = 0
CLASSIFICATION_TYPE = U
NORAD_CAT_ID   = 67424
ELEMENT_SET_NO = 999
REV_AT_EPOCH   = 443
BSTAR          = .11840872E-2
MEAN_MOTION_DOT = .49578E-3
MEAN_MOTION_DDOT = 0

CCSDS_OMM_VERS = 2.0
CREATION_DATE  = 
ORIGINATOR     = 

OBJECT_NAME    = STARLINK-36447
OBJECT_ID      = 2026-005X
CENTER_NAME    = EARTH
REF_FRAME      = TEME
TIME_SYSTEM    = UTC
MEAN_ELEMENT_THEORY = SGP/SGP4

EPOCH          = 2026-02-10T00:00:02.999808
MEAN_MOTION    = 15.40650578
ECCENTRICITY   = .0001071
INCLINATION    = 43.0013
RA_OF_ASC_NODE = 36.5037
ARG_OF_PERICENTER = 244.9260
MEAN_ANOMALY   = 234.4227

EPHEMERIS_TYPE = 0
CLASSIFICATION_TYPE = U
NORAD_CAT_ID   = 67425
ELEMENT_SET_NO = 999
REV_AT_EPOCH   = 573
BSTAR          = .12059031E-2
MEAN_MOTION_DOT = .50319E-3
MEAN_MOTION_DDOT = 0

CCSDS_OMM_VERS = 2.0
CREATION_DATE  = 
ORIGINATOR     = 

OBJECT_NAME    = STARLINK-36146
OBJECT_ID      = 2026-005Y
CENTER_NAME    = EARTH
REF_FRAME      = TEME
TIME_SYSTEM    = UTC
MEAN_ELEMENT_THEORY = SGP/SGP4

EPOCH          = 2026-02-10T06:00:02.000160
MEAN_MOTION    = 15.40673485
ECCENTRICITY   = .00013075
INCLINATION    = 43.0007
RA_OF_ASC_NODE = 34.8836
ARG_OF_PERICENTER = 275.1571
MEAN_ANOMALY   = 227.0256

EPHEMERIS_TYPE = 0
CLASSIFICATION_TYPE = U
NORAD_CAT_ID   = 67426
ELEMENT_SET_NO = 999
REV_AT_EPOCH   = 573
BSTAR          = .72421648E-3
MEAN_MOTION_DOT = .30041E-3
MEAN_MOTION_DDOT = 0

CCSDS_OMM_VERS = 2.0
CREATION_DATE  = 
ORIGINATOR     = 

OBJECT_NAME    = STARLINK-36459
OBJECT_ID      = 2026-005Z
CENTER_NAME    = EARTH
REF_FRAME      = TEME
TIME_SYSTEM    = UTC
MEAN_ELEMENT_THEORY = SGP/SGP4

EPOCH          = 2026-02-09T07:29:51.117216
MEAN_MOTION    = 15.42058683
ECCENTRICITY   = .0004637
INCLINATION    = 43.0004
RA_OF_ASC_NODE = 40.2226
ARG_OF_PERICENTER = 211.9517
MEAN_ANOMALY   = 148.1059

EPHEMERIS_TYPE = 0
CLASSIFICATION_TYPE = U
NORAD_CAT_ID   = 67427
ELEMENT_SET_NO = 999
REV_AT_EPOCH   = 432
BSTAR          = -.73002E-2
MEAN_MOTION_DOT = -.307128E-2
MEAN_MOTION_DDOT = 0

CCSDS_OMM_VERS = 2.0
CREATION_DATE  = 
ORIGINATOR     = 

OBJECT_NAME    = STARLINK-36464
OBJECT_ID      = 2026-005AA
CENTER_NAME    = EARTH
REF_FRAME      = TEME
TIME_SYSTEM    = UTC
MEAN_ELEMENT_THEORY = SGP/SGP4

EPOCH          = 2026-02-09T01:09:14.997600
MEAN_MOTION    = 15.50589951
ECCENTRICITY   = .00012369
INCLINATION    = 43.0006
RA_OF_ASC_NODE = 41.6785
ARG_OF_PERICENTER = 268.9115
MEAN_ANOMALY   = 91.1603

EPHEMERIS_TYPE = 0
CLASSIFICATION_TYPE = U
NORAD_CAT_ID   = 67428
ELEMENT_SET_NO = 999
REV_AT_EPOCH   = 428
BSTAR          = .11583422E-2
MEAN_MOTION_DOT = .68234E-3
MEAN_MOTION_DDOT = 0

CCSDS_OMM_VERS = 2.0
CREATION_DATE  = 
ORIGINATOR     = 

OBJECT_NAME    = STARLINK-36513
OBJECT_ID      = 2026-005AB
CENTER_NAME    = EARTH
REF_FRAME      = TEME
TIME_SYSTEM    = UTC
MEAN_ELEMENT_THEORY = SGP/SGP4

EPOCH          = 2026-02-10T00:20:08.505312
MEAN_MOTION    = 15.50591583
ECCENTRICITY   = .0002418
INCLINATION    = 42.9991
RA_OF_ASC_NODE = 36.0239
ARG_OF_PERICENTER = 215.8183
MEAN_ANOMALY   = 144.2516

EPHEMERIS_TYPE = 0
CLASSIFICATION_TYPE = U
NORAD_CAT_ID   = 67429
ELEMENT_SET_NO = 999
REV_AT_EPOCH   = 443
BSTAR          = .19005492E-2
MEAN_MOTION_DOT = .11283E-2
MEAN_MOTION_DDOT = 0

CCSDS_OMM_VERS = 2.0
CREATION_DATE  = 
ORIGINATOR     = 

OBJECT_NAME    = STARLINK-36515
OBJECT_ID      = 2026-005AC
CENTER_NAME    = EARTH
REF_FRAME      = TEME
TIME_SYSTEM    = UTC
MEAN_ELEMENT_THEORY = SGP/SGP4

EPOCH          = 2026-02-10T06:43:38.768448
MEAN_MOTION    = 15.40853042
ECCENTRICITY   = .00025249
INCLINATION    = 43.0002
RA_OF_ASC_NODE = 34.5875
ARG_OF_PERICENTER = 317.2106
MEAN_ANOMALY   = 42.8554

EPHEMERIS_TYPE = 0
CLASSIFICATION_TYPE = U
NORAD_CAT_ID   = 67430
ELEMENT_SET_NO = 999
REV_AT_EPOCH   = 447
BSTAR          = -.33530138E-2
MEAN_MOTION_DOT = -.138574E-2
MEAN_MOTION_DDOT = 0

CCSDS_OMM_VERS = 2.0
CREATION_DATE  = 
ORIGINATOR     = 

OBJECT_NAME    = STARLINK-36443
OBJECT_ID      = 2026-005AD
CENTER_NAME    = EARTH
REF_FRAME      = TEME
TIME_SYSTEM    = UTC
MEAN_ELEMENT_THEORY = SGP/SGP4

EPOCH          = 2026-02-10T00:19:37.444512
MEAN_MOTION    = 15.50643879
ECCENTRICITY   = .00028653
INCLINATION    = 42.9924
RA_OF_ASC_NODE = 36.0144
ARG_OF_PERICENTER = 146.6853
MEAN_ANOMALY   = 213.4188

EPHEMERIS_TYPE = 0
CLASSIFICATION_TYPE = U
NORAD_CAT_ID   = 67431
ELEMENT_SET_NO = 999
REV_AT_EPOCH   = 444
BSTAR          = .11569457E-2
MEAN_MOTION_DOT = .6829E-3
MEAN_MOTION_DDOT = 0

CCSDS_OMM_VERS = 2.0
CREATION_DATE  = 
ORIGINATOR     = 

OBJECT_NAME    = STARLINK-36460
OBJECT_ID      = 2026-005AE
CENTER_NAME    = EARTH
REF_FRAME      = TEME
TIME_SYSTEM    = UTC
MEAN_ELEMENT_THEORY = SGP/SGP4

EPOCH          = 2026-02-10T00:19:07.972608
MEAN_MOTION    = 15.50633102
ECCENTRICITY   = .00013682
INCLINATION    = 43.0005
RA_OF_ASC_NODE = 36.0193
ARG_OF_PERICENTER = 249.1195
MEAN_ANOMALY   = 110.9518

EPHEMERIS_TYPE = 0
CLASSIFICATION_TYPE = U
NORAD_CAT_ID   = 67432
ELEMENT_SET_NO = 999
REV_AT_EPOCH   = 443
BSTAR          = .1410554E-2
MEAN_MOTION_DOT = .83456E-3
MEAN_MOTION_DDOT = 0

CCSDS_OMM_VERS = 2.0
CREATION_DATE  = 
ORIGINATOR     = 

OBJECT_NAME    = YAOGAN-50 01
OBJECT_ID      = 2026-006A
CENTER_NAME    = EARTH
REF_FRAME      = TEME
TIME_SYSTEM    = UTC
MEAN_ELEMENT_THEORY = SGP/SGP4

EPOCH          = 2026-02-10T06:17:57.923808
MEAN_MOTION    = 13.83242590
ECCENTRICITY   = .00007607
INCLINATION    = 142.0324
RA_OF_ASC_NODE = 322.4040
ARG_OF_PERICENTER = 261.3646
MEAN_ANOMALY   = 98.6987

EPHEMERIS_TYPE = 0
CLASSIFICATION_TYPE = U
NORAD_CAT_ID   = 67433
ELEMENT_SET_NO = 999
REV_AT_EPOCH   = 385
BSTAR          = .14534772E-3
MEAN_MOTION_DOT = .349E-5
MEAN_MOTION_DDOT = 0

CCSDS_OMM_VERS = 2.0
CREATION_DATE  = 
ORIGINATOR     = 

OBJECT_NAME    = CZ-6A R/B
OBJECT_ID      = 2026-006B
CENTER_NAME    = EARTH
REF_FRAME      = TEME
TIME_SYSTEM    = UTC
MEAN_ELEMENT_THEORY = SGP/SGP4

EPOCH          = 2026-02-09T16:35:38.199840
MEAN_MOTION    = 14.62317966
ECCENTRICITY   = .02035611
INCLINATION    = 142.0438
RA_OF_ASC_NODE = 336.6867
ARG_OF_PERICENTER = 280.4408
MEAN_ANOMALY   = 77.3464

EPHEMERIS_TYPE = 0
CLASSIFICATION_TYPE = U
NORAD_CAT_ID   = 67434
ELEMENT_SET_NO = 999
REV_AT_EPOCH   = 397
BSTAR          = .24272148E-3
MEAN_MOTION_DOT = .2005E-4
MEAN_MOTION_DDOT = 0

