STARLINK-36465          
1 67423U 26005V   26041.05234317  .00076221  00000+0  18121-2 0  9995
2 67423  42.9999  36.3219 0001447 201.3951 158.6845 15.40727322  4449
STARLINK-36362          
1 67424U 26005W   26040.98302992  .00049578  00000+0  11841-2 0  9999
2 67424  42.9994  36.6595 0001558 193.3203 166.7612 15.40758589  4438
STARLINK-36447          
1 67425U 26005X   26041.00003472  .00050319  00000+0  12059-2 0  9992
2 67425  43.0013  36.5037 0001071 244.9260 234.4227 15.40650578  5737
STARLINK-36146          
1 67426U 26005Y   26041.25002315  .00030041  00000+0  72422-3 0  9996
2 67426  43.0007  34.8836 0001307 275.1571 227.0256 15.40673485  5734
STARLINK-36459          
1 67427U 26005Z   26040.31239719 -.00307128  00000+0 -73002-2 0  9992
2 67427  43.0004  40.2226 0004637 211.9517 148.1059 15.42058683  4320
STARLINK-36464          
1 67428U 26005AA  26040.04809025  .00068234  00000+0  11583-2 0  9992
2 67428  43.0006  41.6785 0001236 268.9115  91.1603 15.50589951  4289
STARLINK-36513          
1 67429U 26005AB  26041.01398733  .00112830  00000+0  19005-2 0  9999
2 67429  42.9991  36.0239 0002418 215.8183 144.2516 15.50591583  4436
STARLINK-36515          
1 67430U 26005AC  26041.28030982 -.00138574  00000+0 -33530-2 0  9993
2 67430  43.0002  34.5875 0002524 317.2106  42.8554 15.40853042  4471
STARLINK-36443          
1 67431U 26005AD  26041.01362783  .00068290  00000+0  11569-2 0  9995
2 67431  42.9924  36.0144 0002865 146.6853 213.4188 15.50643879  4442
STARLINK-36460          
1 67432U 26005AE  26041.01328672  .00083456  00000+0  14106-2 0  9996
2 67432  43.0005  36.0193 0001368 249.1195 110.9518 15.50633102  4439
YAOGAN-50 01            
1 67433U 26006A   26041.26247597  .00000349  00000+0  14535-3 0  9998
2 67433 142.0324 322.4040 0000760 261.3646  98.6987 13.83242590  3857
CZ-6A R/B               
1 67434U 26006B   26040.69141435  .00002005  00000+0  24272-3 0  9999
2 67434 142.0438 336.6867 0203561 280.4408  77.3464 14.62317966  3975
